[{"OBJECT_NAME":"FIREFLY-3","OBJECT_ID":"2025-009DF","EPOCH":"2026-03-09T21:54:06.056640","MEAN_MOTION":14.92832807,"ECCENTRICITY":0.00061356,"INCLINATION":97.7107,"RA_OF_ASC_NODE":149.1214,"ARG_OF_PERICENTER":126.9978,"MEAN_ANOMALY":233.1804,"EPHEMERIS_TYPE":0,"CLASSIFICATION_TYPE":"U","NORAD_CAT_ID":62710,"ELEMENT_SET_NO":999,"REV_AT_EPOCH":6252,"BSTAR":0.00029016679,"MEAN_MOTION_DOT":2.949e-5,"MEAN_MOTION_DDOT":0},{"OBJECT_NAME":"PADRE","OBJECT_ID":"2025-135AH","EPOCH":"2026-03-09T21:49:33.195936","MEAN_MOTION":14.92114701,"ECCENTRICITY":0.00013867,"INCLINATION":97.759,"RA_OF_ASC_NODE":183.9613,"ARG_OF_PERICENTER":187.9932,"MEAN_ANOMALY":172.1266,"EPHEMERIS_TYPE":0,"CLASSIFICATION_TYPE":"U","NORAD_CAT_ID":64559,"ELEMENT_SET_NO":999,"REV_AT_EPOCH":3904,"BSTAR":0.00028627052,"MEAN_MOTION_DOT":2.854e-5,"MEAN_MOTION_DDOT":0}]
